{
"type": "FeatureCollection",
"name": "HOMICIDIOS_2023_2025_Roosevelt",
"crs": { "type": "name", "properties": { "name": "urn:ogc:def:crs:OGC:1.3:CRS84" } },
"features": [
{ "type": "Feature", "properties": { "DELITO": "HOMICIDIO", "TIPO_VIOLE": "DELINCUENCIA", "COMUNA": 19, "NOM_COMUNA": "Comuna 19", "BARRIO": 1913, "NOM_BARRIO": "El Cedro", "DIRECCION": "KR 32 CL 9", "X": -76.53689182, "Y": 3.427823894, "FECHA_HECH": "2023-02-01T00:00:00", "HORA_HECHO": "15:04", "ESTRATO": 4 }, "geometry": { "type": "Point", "coordinates": [ -76.53689182, 3.427823894 ] } },
{ "type": "Feature", "properties": { "DELITO": "HOMICIDIO", "TIPO_VIOLE": "DELINCUENCIA", "COMUNA": 19, "NOM_COMUNA": "Comuna 19", "BARRIO": 1913, "NOM_BARRIO": "El Cedro", "DIRECCION": "CL 7 KR 29", "X": -76.53764512, "Y": 3.43170904, "FECHA_HECH": "2023-06-15T00:00:00", "HORA_HECHO": "16:50", "ESTRATO": 4 }, "geometry": { "type": "Point", "coordinates": [ -76.53764512, 3.43170904 ] } },
{ "type": "Feature", "properties": { "DELITO": "HOMICIDIO", "TIPO_VIOLE": "DELINCUENCIA", "COMUNA": 19, "NOM_COMUNA": "Comuna 19", "BARRIO": 1913, "NOM_BARRIO": "El Cedro", "DIRECCION": "KR 25 CL 7", "X": -76.53739081000001, "Y": 3.435095884, "FECHA_HECH": "2024-04-08T00:00:00", "HORA_HECHO": "18:41", "ESTRATO": 4 }, "geometry": { "type": "Point", "coordinates": [ -76.53739081, 3.435095884 ] } },
{ "type": "Feature", "properties": { "DELITO": "HOMICIDIO", "TIPO_VIOLE": "DELINCUENCIA", "COMUNA": 19, "NOM_COMUNA": "Comuna 19", "BARRIO": 1912, "NOM_BARRIO": "3 de Julio", "DIRECCION": "CL 6 31 36", "X": -76.53910413, "Y": 3.428969064, "FECHA_HECH": "2025-07-21T00:00:00", "HORA_HECHO": "21:48", "ESTRATO": 4 }, "geometry": { "type": "Point", "coordinates": [ -76.53910413, 3.428969064 ] } },
{ "type": "Feature", "properties": { "DELITO": "HOMICIDIO", "TIPO_VIOLE": "DELINCUENCIA", "COMUNA": 19, "NOM_COMUNA": "Comuna 19", "BARRIO": 1913, "NOM_BARRIO": "El Cedro", "DIRECCION": "KR 28 6 45", "X": -76.5385824, "Y": 3.432586151, "FECHA_HECH": "2025-10-07T00:00:00", "HORA_HECHO": "13:18", "ESTRATO": 4 }, "geometry": { "type": "Point", "coordinates": [ -76.5385824, 3.432586151 ] } }
]
}
