{
"type": "FeatureCollection",
"name": "BD_SINIESTROS_2023_2025_COMUNA_BARRIO_4326_Roosevelt",
"crs": { "type": "name", "properties": { "name": "urn:ogc:def:crs:OGC:1.3:CRS84" } },
"features": [
{ "type": "Feature", "properties": { "ID": 4787, "X": 1059971.011, "Y": 870547.0854, "Codigo": "<Null>", "Fecha": "2023-07-01T00:00:00", "Año": 2023, "dia_sem": 6, "Tipo_Confi": "Daños", "direccion": "Calle 9 Con Carrera 36a", "No_Vehicul": 2, "Tipo_de_Ve": "AUTOMOVIL", "comuna": 19, "nombre": "Comuna 19", "id_barrio": 1905, "barrio": "Eucaristico" }, "geometry": { "type": "Point", "coordinates": [ -76.537829404912756, 3.425373076650301 ] } },
{ "type": "Feature", "properties": { "ID": 4796, "X": 1059590.372, "Y": 870597.8124000001, "Codigo": "AI0001896", "Fecha": "2024-01-16T00:00:00", "Año": 2024, "dia_sem": 2, "Tipo_Confi": "Lesiones", "direccion": "CALLE 5 b5 CARRERA 37", "No_Vehicul": 2, "Tipo_de_Ve": "MOTOCICLETA,AUTOMOVIL", "comuna": 19, "nombre": "Comuna 19", "id_barrio": 1905, "barrio": "Eucaristico" }, "geometry": { "type": "Point", "coordinates": [ -76.541254414703346, 3.425833730542226 ] } },
{ "type": "Feature", "properties": { "ID": 4798, "X": 1059595.197, "Y": 870594.5074, "Codigo": "AI004850", "Fecha": "2024-03-21T00:00:00", "Año": 2024, "dia_sem": 4, "Tipo_Confi": "Lesiones", "direccion": "CALLE 5 B , CARRERA 37", "No_Vehicul": 2, "Tipo_de_Ve": "AUTOMOVIL,MOTOCICLETA", "comuna": 19, "nombre": "Comuna 19", "id_barrio": 1905, "barrio": "Eucaristico" }, "geometry": { "type": "Point", "coordinates": [ -76.541211012465368, 3.425803819116194 ] } },
{ "type": "Feature", "properties": { "ID": 4799, "X": 1059595.495, "Y": 870595.3962, "Codigo": "AI011591", "Fecha": "2024-09-14T00:00:00", "Año": 2024, "dia_sem": 6, "Tipo_Confi": "Lesiones", "direccion": "CALLE 5 b-5 , CARRERA 37", "No_Vehicul": 2, "Tipo_de_Ve": "MOTOCICLETA,AUTOMOVIL", "comuna": 19, "nombre": "Comuna 19", "id_barrio": 1905, "barrio": "Eucaristico" }, "geometry": { "type": "Point", "coordinates": [ -76.541208326370196, 3.425811855002115 ] } },
{ "type": "Feature", "properties": { "ID": 4832, "X": 1059619.556, "Y": 870564.4288, "Codigo": "AI014345", "Fecha": "2024-11-21T00:00:00", "Año": 2024, "dia_sem": 4, "Tipo_Confi": "Lesiones", "direccion": "CALLE 5 E , CARRERA 37", "No_Vehicul": 2, "Tipo_de_Ve": "MOTOCICLETA,AUTOMOVIL", "comuna": 19, "nombre": "Comuna 19", "id_barrio": 1905, "barrio": "Eucaristico" }, "geometry": { "type": "Point", "coordinates": [ -76.540991963859796, 3.425531695961182 ] } },
{ "type": "Feature", "properties": { "ID": 4847, "X": 1059605.402, "Y": 870571.1968, "Codigo": "<Null>", "Fecha": "2023-11-24T00:00:00", "Año": 2023, "dia_sem": 5, "Tipo_Confi": "Lesiones", "direccion": "Calle 5E Con Carrera 37", "No_Vehicul": 2, "Tipo_de_Ve": "AUTOMOVIL,MOTOCICLETA", "comuna": 19, "nombre": "Comuna 19", "id_barrio": 1905, "barrio": "Eucaristico" }, "geometry": { "type": "Point", "coordinates": [ -76.541119297774458, 3.425592970400489 ] } },
{ "type": "Feature", "properties": { "ID": 4869, "X": 1059596.5, "Y": 870586.9, "Codigo": "AI018122", "Fecha": "2025-02-18T00:00:00", "Año": 2025, "dia_sem": 2, "Tipo_Confi": "Lesiones", "direccion": "CALLE 5 b 5 , CARRERA 37", "No_Vehicul": 1, "Tipo_de_Ve": "AUTOMOVIL", "comuna": 19, "nombre": "Comuna 19", "id_barrio": 1905, "barrio": "Eucaristico" }, "geometry": { "type": "Point", "coordinates": [ -76.54119932541154, 3.425735019022606 ] } },
{ "type": "Feature", "properties": { "ID": 4879, "X": 1059590.427, "Y": 870597.8515, "Codigo": "<Null>", "Fecha": "2023-09-06T00:00:00", "Año": 2023, "dia_sem": 3, "Tipo_Confi": "Lesiones", "direccion": "Calle 5B 5 Con Carrera 37", "No_Vehicul": 2, "Tipo_de_Ve": "AUTOMOVIL,MOTOCICLETA", "comuna": 19, "nombre": "Comuna 19", "id_barrio": 1906, "barrio": "San Fernando Nuevo" }, "geometry": { "type": "Point", "coordinates": [ -76.541253919576391, 3.425834083844244 ] } },
{ "type": "Feature", "properties": { "ID": 4888, "X": 1059741.077, "Y": 870609.9917, "Codigo": "AI016435", "Fecha": "2025-01-08T00:00:00", "Año": 2025, "dia_sem": 3, "Tipo_Confi": "Lesiones", "direccion": "CALLE 6  , CARRERA 36 A", "No_Vehicul": 2, "Tipo_de_Ve": "AUTOMOVIL,MOTOCICLETA", "comuna": 19, "nombre": "Comuna 19", "id_barrio": 1905, "barrio": "Eucaristico" }, "geometry": { "type": "Point", "coordinates": [ -76.539898199758881, 3.425943104393069 ] } },
{ "type": "Feature", "properties": { "ID": 4890, "X": 1059848.5, "Y": 870611.2, "Codigo": "AI030915", "Fecha": "2025-11-13T00:00:00", "Año": 2025, "dia_sem": 4, "Tipo_Confi": "Lesiones", "direccion": "CALLE 7 CARRERA 36", "No_Vehicul": 1, "Tipo_de_Ve": "AUTOMOVIL", "comuna": 19, "nombre": "Comuna 19", "id_barrio": 1905, "barrio": "Eucaristico" }, "geometry": { "type": "Point", "coordinates": [ -76.538931523235036, 3.425953485813004 ] } },
{ "type": "Feature", "properties": { "ID": 4893, "X": 1059837.935, "Y": 870616.0947, "Codigo": "<Null>", "Fecha": "2023-03-08T00:00:00", "Año": 2023, "dia_sem": 3, "Tipo_Confi": "Daños", "direccion": "Calle 7 Con Carrera 36", "No_Vehicul": 2, "Tipo_de_Ve": "AUTOMOVIL,AUTOMOVIL", "comuna": 19, "nombre": "Comuna 19", "id_barrio": 1905, "barrio": "Eucaristico" }, "geometry": { "type": "Point", "coordinates": [ -76.539026570057899, 3.425997802094091 ] } },
{ "type": "Feature", "properties": { "ID": 4908, "X": 1059997.808, "Y": 870637.3891, "Codigo": "<Null>", "Fecha": "2023-05-25T00:00:00", "Año": 2023, "dia_sem": 4, "Tipo_Confi": "Lesiones", "direccion": "Calle 9 Con Carrera 34", "No_Vehicul": 2, "Tipo_de_Ve": "AUTOMOVIL,MOTOCICLETA", "comuna": 19, "nombre": "Comuna 19", "id_barrio": 1905, "barrio": "Eucaristico" }, "geometry": { "type": "Point", "coordinates": [ -76.537587808596271, 3.42618955355571 ] } },
{ "type": "Feature", "properties": { "ID": 4910, "X": 1059998.205, "Y": 870637.6536, "Codigo": "<Null>", "Fecha": "2023-06-17T00:00:00", "Año": 2023, "dia_sem": 6, "Tipo_Confi": "Lesiones", "direccion": "Calle 9 Con Carrera 34", "No_Vehicul": 1, "Tipo_de_Ve": "AUTOMOVIL", "comuna": 19, "nombre": "Comuna 19", "id_barrio": 1905, "barrio": "Eucaristico" }, "geometry": { "type": "Point", "coordinates": [ -76.537584234760715, 3.426191943398404 ] } },
{ "type": "Feature", "properties": { "ID": 4930, "X": 1059969.594, "Y": 870675.9264, "Codigo": "<Null>", "Fecha": "2023-06-18T00:00:00", "Año": 2023, "dia_sem": 7, "Tipo_Confi": "Lesiones", "direccion": "Carrera 34 Con Calle 8 y 9", "No_Vehicul": 1, "Tipo_de_Ve": "MOTOCICLETA", "comuna": 19, "nombre": "Comuna 19", "id_barrio": 1905, "barrio": "Eucaristico" }, "geometry": { "type": "Point", "coordinates": [ -76.537841503494306, 3.426538188726949 ] } },
{ "type": "Feature", "properties": { "ID": 4959, "X": 1059746.539, "Y": 870706.688, "Codigo": "AI006702", "Fecha": "2024-05-06T00:00:00", "Año": 2024, "dia_sem": 1, "Tipo_Confi": "Lesiones", "direccion": "CARRERA 36  , CALLE 5 B-4", "No_Vehicul": 2, "Tipo_de_Ve": "MOTOCICLETA,AUTOMOVIL", "comuna": 19, "nombre": "Comuna 19", "id_barrio": 1906, "barrio": "San Fernando Nuevo" }, "geometry": { "type": "Point", "coordinates": [ -76.539848560674187, 3.426817498393112 ] } },
{ "type": "Feature", "properties": { "ID": 4962, "X": 1059759.139, "Y": 870708.0013, "Codigo": "<Null>", "Fecha": "2023-07-24T00:00:00", "Año": 2023, "dia_sem": 1, "Tipo_Confi": "Lesiones", "direccion": "Calle 6 Con Carrera 36", "No_Vehicul": 2, "Tipo_de_Ve": "AUTOMOVIL,MOTOCICLETA", "comuna": 19, "nombre": "Comuna 19", "id_barrio": 1905, "barrio": "Eucaristico" }, "geometry": { "type": "Point", "coordinates": [ -76.539735169954128, 3.426829310605056 ] } },
{ "type": "Feature", "properties": { "ID": 4969, "X": 1059951.607, "Y": 870706.2112, "Codigo": "AI003078", "Fecha": "2024-02-11T00:00:00", "Año": 2024, "dia_sem": 7, "Tipo_Confi": "Lesiones", "direccion": "CALLE 8 CARRERA 34", "No_Vehicul": 2, "Tipo_de_Ve": "AUTOMOVIL,AUTOMOVIL", "comuna": 19, "nombre": "Comuna 19", "id_barrio": 1905, "barrio": "Eucaristico" }, "geometry": { "type": "Point", "coordinates": [ -76.538003210299593, 3.426812144723908 ] } },
{ "type": "Feature", "properties": { "ID": 4970, "X": 1059955.067, "Y": 870715.1495000001, "Codigo": "AI008185", "Fecha": "2024-06-13T00:00:00", "Año": 2024, "dia_sem": 4, "Tipo_Confi": "Lesiones", "direccion": "CARRERA 34  , CALLE 8", "No_Vehicul": 2, "Tipo_de_Ve": "MOTOCICLETA,AUTOMOVIL", "comuna": 19, "nombre": "Comuna 19", "id_barrio": 1905, "barrio": "Eucaristico" }, "geometry": { "type": "Point", "coordinates": [ -76.537972029402823, 3.426892955861466 ] } },
{ "type": "Feature", "properties": { "ID": 4974, "X": 1059941.377, "Y": 870712.7248, "Codigo": "<Null>", "Fecha": "2023-02-16T00:00:00", "Año": 2023, "dia_sem": 4, "Tipo_Confi": "Daños", "direccion": "Calle 8 Con Carrera 34", "No_Vehicul": 2, "Tipo_de_Ve": "BUSETA", "comuna": 19, "nombre": "Comuna 19", "id_barrio": 1905, "barrio": "Eucaristico" }, "geometry": { "type": "Point", "coordinates": [ -76.538095234369081, 3.426871099057572 ] } },
{ "type": "Feature", "properties": { "ID": 4981, "X": 1059758.713, "Y": 870717.9746, "Codigo": "<Null>", "Fecha": "2023-03-06T00:00:00", "Año": 2023, "dia_sem": 1, "Tipo_Confi": "Lesiones", "direccion": "Calle 6 Con Carrera 36", "No_Vehicul": 2, "Tipo_de_Ve": "AUTOMOVIL,MOTOCICLETA", "comuna": 19, "nombre": "Comuna 19", "id_barrio": 1906, "barrio": "San Fernando Nuevo" }, "geometry": { "type": "Point", "coordinates": [ -76.539738953063463, 3.42691950101212 ] } },
{ "type": "Feature", "properties": { "ID": 4988, "X": 1059760.343, "Y": 870718.5171000001, "Codigo": "<Null>", "Fecha": "2023-11-22T00:00:00", "Año": 2023, "dia_sem": 3, "Tipo_Confi": "Lesiones", "direccion": "Calle 6 Con Carrera 36", "No_Vehicul": 1, "Tipo_de_Ve": "CAMION", "comuna": 19, "nombre": "Comuna 19", "id_barrio": 1906, "barrio": "San Fernando Nuevo" }, "geometry": { "type": "Point", "coordinates": [ -76.539724282381243, 3.426924398552809 ] } },
{ "type": "Feature", "properties": { "ID": 5031, "X": 1059637.015, "Y": 870751.9339, "Codigo": "<Null>", "Fecha": "2023-01-31T00:00:00", "Año": 2023, "dia_sem": 2, "Tipo_Confi": "Lesiones", "direccion": "Calle 5B4 Con Carrera 36A Y 37", "No_Vehicul": 2, "Tipo_de_Ve": "AUTOMOVIL,MOTOCICLETA", "comuna": 19, "nombre": "Comuna 19", "id_barrio": 1906, "barrio": "San Fernando Nuevo" }, "geometry": { "type": "Point", "coordinates": [ -76.540833910484238, 3.427227210796634 ] } },
{ "type": "Feature", "properties": { "ID": 5063, "X": 1060065.329, "Y": 870781.9841, "Codigo": "<Null>", "Fecha": "2023-10-19T00:00:00", "Año": 2023, "dia_sem": 4, "Tipo_Confi": "Lesiones", "direccion": "Calle 9 Con Carrera 32-36", "No_Vehicul": 1, "Tipo_de_Ve": "MOTOCICLETA", "comuna": 19, "nombre": "Comuna 19", "id_barrio": 1913, "barrio": "El Cedro" }, "geometry": { "type": "Point", "coordinates": [ -76.536979471741716, 3.427496777038638 ] } },
{ "type": "Feature", "properties": { "ID": 5094, "X": 1060078.276, "Y": 870825.4755, "Codigo": "<Null>", "Fecha": "2023-05-15T00:00:00", "Año": 2023, "dia_sem": 1, "Tipo_Confi": "Lesiones", "direccion": "Calle 9 Con Carrera 32", "No_Vehicul": 2, "Tipo_de_Ve": "AUTOMOVIL,MOTOCICLETA", "comuna": 19, "nombre": "Comuna 19", "id_barrio": 1913, "barrio": "El Cedro" }, "geometry": { "type": "Point", "coordinates": [ -76.536862744258812, 3.427890002196302 ] } },
{ "type": "Feature", "properties": { "ID": 5109, "X": 1059851.3, "Y": 870840.2, "Codigo": "AI019317", "Fecha": "2025-03-15T00:00:00", "Año": 2025, "dia_sem": 6, "Tipo_Confi": "Lesiones", "direccion": "CALLE 6  , CARRERA 34", "No_Vehicul": 2, "Tipo_de_Ve": "CAMION,MOTOCICLETA", "comuna": 19, "nombre": "Comuna 19", "id_barrio": 1905, "barrio": "Eucaristico" }, "geometry": { "type": "Point", "coordinates": [ -76.538905168801946, 3.428024311269679 ] } },
{ "type": "Feature", "properties": { "ID": 5110, "X": 1059851.3, "Y": 870840.2, "Codigo": "AI022212", "Fecha": "2025-05-18T00:00:00", "Año": 2025, "dia_sem": 7, "Tipo_Confi": "Lesiones", "direccion": "CALLE 6 CARRERA 34", "No_Vehicul": 2, "Tipo_de_Ve": "AUTOMOVIL,MOTOCICLETA", "comuna": 19, "nombre": "Comuna 19", "id_barrio": 1905, "barrio": "Eucaristico" }, "geometry": { "type": "Point", "coordinates": [ -76.538905168801946, 3.428024311269679 ] } },
{ "type": "Feature", "properties": { "ID": 5111, "X": 1059851.3, "Y": 870840.2, "Codigo": "AI024333", "Fecha": "2025-07-02T00:00:00", "Año": 2025, "dia_sem": 4, "Tipo_Confi": "Lesiones", "direccion": "CALLE 6 CARRERA 34", "No_Vehicul": 2, "Tipo_de_Ve": "AUTOMOVIL,MOTOCICLETA", "comuna": 19, "nombre": "Comuna 19", "id_barrio": 1905, "barrio": "Eucaristico" }, "geometry": { "type": "Point", "coordinates": [ -76.538905168801946, 3.428024311269679 ] } },
{ "type": "Feature", "properties": { "ID": 5144, "X": 1059844.23, "Y": 870851.8183, "Codigo": "AI014912", "Fecha": "2024-12-03T00:00:00", "Año": 2024, "dia_sem": 2, "Tipo_Confi": "Lesiones", "direccion": "CALLE 6  , CARRERA 34", "No_Vehicul": 1, "Tipo_de_Ve": "AUTOMOVIL", "comuna": 19, "nombre": "Comuna 19", "id_barrio": 1905, "barrio": "Eucaristico" }, "geometry": { "type": "Point", "coordinates": [ -76.538968731182578, 3.428129411119608 ] } },
{ "type": "Feature", "properties": { "ID": 5170, "X": 1059827.604, "Y": 870871.2392, "Codigo": "<Null>", "Fecha": "2023-11-18T00:00:00", "Año": 2023, "dia_sem": 6, "Tipo_Confi": "Lesiones", "direccion": "Calle 6 Con Carrera 34", "No_Vehicul": 2, "Tipo_de_Ve": "AUTOMOVIL,MOTOCICLETA", "comuna": 19, "nombre": "Comuna 19", "id_barrio": 1906, "barrio": "San Fernando Nuevo" }, "geometry": { "type": "Point", "coordinates": [ -76.539118246170659, 3.428305118192381 ] } },
{ "type": "Feature", "properties": { "ID": 5298, "X": 1059834.719, "Y": 870957.9462, "Codigo": "<Null>", "Fecha": "2023-08-16T00:00:00", "Año": 2023, "dia_sem": 3, "Tipo_Confi": "Lesiones", "direccion": "Calle 6 Con Kr 31-18", "No_Vehicul": 2, "Tipo_de_Ve": "AUTOMOVIL,MOTOCICLETA", "comuna": 19, "nombre": "Comuna 19", "id_barrio": 1912, "barrio": "3 de Julio" }, "geometry": { "type": "Point", "coordinates": [ -76.539053781509892, 3.429089170655818 ] } },
{ "type": "Feature", "properties": { "ID": 5316, "X": 1059838.194, "Y": 870986.8964, "Codigo": "<Null>", "Fecha": "2023-03-27T00:00:00", "Año": 2023, "dia_sem": 1, "Tipo_Confi": "Lesiones", "direccion": "Calle 6 Con Carrera 31", "No_Vehicul": 2, "Tipo_de_Ve": "CAMIONETA,MOTOCICLETA", "comuna": 19, "nombre": "Comuna 19", "id_barrio": 1912, "barrio": "3 de Julio" }, "geometry": { "type": "Point", "coordinates": [ -76.539022364370382, 3.429350948716882 ] } },
{ "type": "Feature", "properties": { "ID": 5317, "X": 1059838.512, "Y": 870986.8964, "Codigo": "<Null>", "Fecha": "2023-08-16T00:00:00", "Año": 2023, "dia_sem": 3, "Tipo_Confi": "Lesiones", "direccion": "Calle 6 Con Kr 31", "No_Vehicul": 2, "Tipo_de_Ve": "CAMION,MOTOCICLETA", "comuna": 19, "nombre": "Comuna 19", "id_barrio": 1912, "barrio": "3 de Julio" }, "geometry": { "type": "Point", "coordinates": [ -76.539019502764759, 3.429350947100167 ] } },
{ "type": "Feature", "properties": { "ID": 5413, "X": 1059856.027, "Y": 871091.0588, "Codigo": "AI015687", "Fecha": "2024-12-18T00:00:00", "Año": 2024, "dia_sem": 3, "Tipo_Confi": "Lesiones", "direccion": "CALLE 6  , CARRERA 30", "No_Vehicul": 2, "Tipo_de_Ve": "BICICLETA,AUTOMOVIL", "comuna": 19, "nombre": "Comuna 19", "id_barrio": 1913, "barrio": "El Cedro" }, "geometry": { "type": "Point", "coordinates": [ -76.538861362286454, 3.430292795231612 ] } },
{ "type": "Feature", "properties": { "ID": 5414, "X": 1059853.37, "Y": 871093.7018, "Codigo": "AI004356", "Fecha": "2024-03-11T00:00:00", "Año": 2024, "dia_sem": 1, "Tipo_Confi": "Lesiones", "direccion": "CALLE 6 30", "No_Vehicul": 2, "Tipo_de_Ve": "MICROBUS,MOTOCICLETA", "comuna": 19, "nombre": "Comuna 19", "id_barrio": 1913, "barrio": "El Cedro" }, "geometry": { "type": "Point", "coordinates": [ -76.538885258635602, 3.430316709310024 ] } },
{ "type": "Feature", "properties": { "ID": 5415, "X": 1059856.026, "Y": 871090.6142, "Codigo": "AI006649", "Fecha": "2024-05-05T00:00:00", "Año": 2024, "dia_sem": 7, "Tipo_Confi": "Lesiones", "direccion": "CARRERA 30  , CALLE 6", "No_Vehicul": 2, "Tipo_de_Ve": "AUTOMOVIL,MOTOCICLETA", "comuna": 19, "nombre": "Comuna 19", "id_barrio": 1913, "barrio": "El Cedro" }, "geometry": { "type": "Point", "coordinates": [ -76.538861373535809, 3.430288774733416 ] } },
{ "type": "Feature", "properties": { "ID": 5421, "X": 1059845.31, "Y": 871102.2276, "Codigo": "<Null>", "Fecha": "2023-04-27T00:00:00", "Año": 2023, "dia_sem": 4, "Tipo_Confi": "Lesiones", "direccion": "Calle 6 Con Carrera 30", "No_Vehicul": 2, "Tipo_de_Ve": "CAMION,MOTOCICLETA", "comuna": 19, "nombre": "Comuna 19", "id_barrio": 1912, "barrio": "3 de Julio" }, "geometry": { "type": "Point", "coordinates": [ -76.538957745560111, 3.430393848838376 ] } },
{ "type": "Feature", "properties": { "ID": 5425, "X": 1059844.675, "Y": 871103.0742, "Codigo": "<Null>", "Fecha": "2023-01-12T00:00:00", "Año": 2023, "dia_sem": 4, "Tipo_Confi": "Lesiones", "direccion": "Calle 6 Con Carrera 30", "No_Vehicul": 2, "Tipo_de_Ve": "AUTOMOVIL,MOTOCICLETA", "comuna": 19, "nombre": "Comuna 19", "id_barrio": 1912, "barrio": "3 de Julio" }, "geometry": { "type": "Point", "coordinates": [ -76.538963455493871, 3.430401507844334 ] } },
{ "type": "Feature", "properties": { "ID": 5426, "X": 1059845.076, "Y": 871103.8543, "Codigo": "<Null>", "Fecha": "2023-12-15T00:00:00", "Año": 2023, "dia_sem": 5, "Tipo_Confi": "Lesiones", "direccion": "CALLE 6   CARRERA 30", "No_Vehicul": 2, "Tipo_de_Ve": "MOTOCICLETA,AUTOMOVIL", "comuna": 19, "nombre": "Comuna 19", "id_barrio": 1912, "barrio": "3 de Julio" }, "geometry": { "type": "Point", "coordinates": [ -76.538959843038967, 3.430408560223721 ] } },
{ "type": "Feature", "properties": { "ID": 5631, "X": 1059857.674, "Y": 871251.2898, "Codigo": "AI017192", "Fecha": "2025-01-27T00:00:00", "Año": 2025, "dia_sem": 1, "Tipo_Confi": "Lesiones", "direccion": "CALLE 6  , CARRERA 29", "No_Vehicul": 2, "Tipo_de_Ve": "AUTOMOVIL,AUTOMOVIL", "comuna": 19, "nombre": "Comuna 19", "id_barrio": 1912, "barrio": "3 de Julio" }, "geometry": { "type": "Point", "coordinates": [ -76.538845730022942, 3.431741750528503 ] } },
{ "type": "Feature", "properties": { "ID": 5745, "X": 1059851.397, "Y": 871323.9071, "Codigo": "<Null>", "Fecha": "2023-01-04T00:00:00", "Año": 2023, "dia_sem": 3, "Tipo_Confi": "Lesiones", "direccion": "Calle 6 Con Carrera 28", "No_Vehicul": 2, "Tipo_de_Ve": "AUTOMOVIL,MOTOCICLETA", "comuna": 19, "nombre": "Comuna 19", "id_barrio": 1912, "barrio": "3 de Julio" }, "geometry": { "type": "Point", "coordinates": [ -76.538901847621617, 3.432398458324388 ] } },
{ "type": "Feature", "properties": { "ID": 5746, "X": 1059851.397, "Y": 871323.9071, "Codigo": "<Null>", "Fecha": "2023-02-21T00:00:00", "Año": 2023, "dia_sem": 2, "Tipo_Confi": "Lesiones", "direccion": "Calle 6 Con Carrera 28", "No_Vehicul": 2, "Tipo_de_Ve": "AUTOMOVIL,MOTOCICLETA", "comuna": 19, "nombre": "Comuna 19", "id_barrio": 1912, "barrio": "3 de Julio" }, "geometry": { "type": "Point", "coordinates": [ -76.538901847621617, 3.432398458324388 ] } },
{ "type": "Feature", "properties": { "ID": 5747, "X": 1059851.397, "Y": 871323.9071, "Codigo": "<Null>", "Fecha": "2023-04-01T00:00:00", "Año": 2023, "dia_sem": 6, "Tipo_Confi": "Lesiones", "direccion": "Calle 6 Con Carrera 28", "No_Vehicul": 2, "Tipo_de_Ve": "AUTOMOVIL,MOTOCICLETA", "comuna": 19, "nombre": "Comuna 19", "id_barrio": 1912, "barrio": "3 de Julio" }, "geometry": { "type": "Point", "coordinates": [ -76.538901847621617, 3.432398458324388 ] } },
{ "type": "Feature", "properties": { "ID": 5748, "X": 1059851.397, "Y": 871323.9071, "Codigo": "<Null>", "Fecha": "2023-12-15T00:00:00", "Año": 2023, "dia_sem": 5, "Tipo_Confi": "Lesiones", "direccion": "CALLE 6   CARRERA 28", "No_Vehicul": 2, "Tipo_de_Ve": "AUTOMOVIL,MOTOCICLETA", "comuna": 19, "nombre": "Comuna 19", "id_barrio": 1912, "barrio": "3 de Julio" }, "geometry": { "type": "Point", "coordinates": [ -76.538901847621617, 3.432398458324388 ] } },
{ "type": "Feature", "properties": { "ID": 5749, "X": 1059875.5, "Y": 871325.2, "Codigo": "AI017993", "Fecha": "2025-02-15T00:00:00", "Año": 2025, "dia_sem": 6, "Tipo_Confi": "Lesiones", "direccion": "CALLE 6  , CARRERA 28", "No_Vehicul": 2, "Tipo_de_Ve": "AUTOMOVIL,MOTOCICLETA", "comuna": 19, "nombre": "Comuna 19", "id_barrio": 1913, "barrio": "El Cedro" }, "geometry": { "type": "Point", "coordinates": [ -76.53868494328438, 3.432410027275492 ] } },
{ "type": "Feature", "properties": { "ID": 5750, "X": 1059875.5, "Y": 871325.2, "Codigo": "AI023380", "Fecha": "2025-06-12T00:00:00", "Año": 2025, "dia_sem": 4, "Tipo_Confi": "Lesiones", "direccion": "CALLE 6 CARRERA 28", "No_Vehicul": 2, "Tipo_de_Ve": "MOTOCICLETA,AUTOMOVIL", "comuna": 19, "nombre": "Comuna 19", "id_barrio": 1913, "barrio": "El Cedro" }, "geometry": { "type": "Point", "coordinates": [ -76.53868494328438, 3.432410027275492 ] } },
{ "type": "Feature", "properties": { "ID": 5751, "X": 1059875.5, "Y": 871325.2, "Codigo": "AI023680", "Fecha": "2025-06-18T00:00:00", "Año": 2025, "dia_sem": 3, "Tipo_Confi": "Lesiones", "direccion": "CALLE 6 CARRERA 28", "No_Vehicul": 2, "Tipo_de_Ve": "MOTOCICLETA,AUTOMOVIL", "comuna": 19, "nombre": "Comuna 19", "id_barrio": 1913, "barrio": "El Cedro" }, "geometry": { "type": "Point", "coordinates": [ -76.53868494328438, 3.432410027275492 ] } },
{ "type": "Feature", "properties": { "ID": 5752, "X": 1059875.5, "Y": 871325.2, "Codigo": "AI023806", "Fecha": "2025-06-20T00:00:00", "Año": 2025, "dia_sem": 5, "Tipo_Confi": "Lesiones", "direccion": "CALLE 6 CARRERA 28", "No_Vehicul": 2, "Tipo_de_Ve": "MOTOCICLETA,AUTOMOVIL", "comuna": 19, "nombre": "Comuna 19", "id_barrio": 1913, "barrio": "El Cedro" }, "geometry": { "type": "Point", "coordinates": [ -76.53868494328438, 3.432410027275492 ] } },
{ "type": "Feature", "properties": { "ID": 5753, "X": 1059875.5, "Y": 871325.2, "Codigo": "AI024807", "Fecha": "2025-07-12T00:00:00", "Año": 2025, "dia_sem": 6, "Tipo_Confi": "Lesiones", "direccion": "CALLE 6 CARRERA 28", "No_Vehicul": 2, "Tipo_de_Ve": "MOTOCICLETA,CAMIONETA", "comuna": 19, "nombre": "Comuna 19", "id_barrio": 1913, "barrio": "El Cedro" }, "geometry": { "type": "Point", "coordinates": [ -76.53868494328438, 3.432410027275492 ] } },
{ "type": "Feature", "properties": { "ID": 5754, "X": 1059875.5, "Y": 871325.2, "Codigo": "AI027836", "Fecha": "2025-09-12T00:00:00", "Año": 2025, "dia_sem": 5, "Tipo_Confi": "Lesiones", "direccion": "CALLE 6 CARRERA 28", "No_Vehicul": 2, "Tipo_de_Ve": "AUTOMOVIL,AUTOMOVIL", "comuna": 19, "nombre": "Comuna 19", "id_barrio": 1913, "barrio": "El Cedro" }, "geometry": { "type": "Point", "coordinates": [ -76.53868494328438, 3.432410027275492 ] } },
{ "type": "Feature", "properties": { "ID": 5757, "X": 1059861.679, "Y": 871330.3372, "Codigo": "AI005581", "Fecha": "2024-04-09T00:00:00", "Año": 2024, "dia_sem": 2, "Tipo_Confi": "Lesiones", "direccion": "CARRERA 28  , CALLE 6", "No_Vehicul": 2, "Tipo_de_Ve": "AUTOMOVIL,MOTOCICLETA", "comuna": 19, "nombre": "Comuna 19", "id_barrio": 1912, "barrio": "3 de Julio" }, "geometry": { "type": "Point", "coordinates": [ -76.538809289509857, 3.432456553169348 ] } },
{ "type": "Feature", "properties": { "ID": 5758, "X": 1059861.977, "Y": 871330.9297, "Codigo": "AI012098", "Fecha": "2024-09-26T00:00:00", "Año": 2024, "dia_sem": 4, "Tipo_Confi": "Lesiones", "direccion": "CALLE 6  , CARRERA 28", "No_Vehicul": 2, "Tipo_de_Ve": "AUTOMOVIL,MOTOCICLETA", "comuna": 19, "nombre": "Comuna 19", "id_barrio": 1912, "barrio": "3 de Julio" }, "geometry": { "type": "Point", "coordinates": [ -76.538806604869407, 3.432461909610204 ] } },
{ "type": "Feature", "properties": { "ID": 5878, "X": 1059879.3, "Y": 871410.6, "Codigo": "AI024245", "Fecha": "2025-07-01T00:00:00", "Año": 2025, "dia_sem": 3, "Tipo_Confi": "Lesiones", "direccion": "CALLE 6 CARRERA 27", "No_Vehicul": 2, "Tipo_de_Ve": "BUS,MOTOCICLETA", "comuna": 19, "nombre": "Comuna 19", "id_barrio": 1913, "barrio": "El Cedro" }, "geometry": { "type": "Point", "coordinates": [ -76.538650315105741, 3.433182277270296 ] } },
{ "type": "Feature", "properties": { "ID": 5879, "X": 1059879.3, "Y": 871410.6, "Codigo": "AI032974", "Fecha": "2025-12-24T00:00:00", "Año": 2025, "dia_sem": 3, "Tipo_Confi": "Lesiones", "direccion": "CALLE 6 CARRERA 27", "No_Vehicul": 2, "Tipo_de_Ve": "MOTOCICLETA,MOTOCICLETA", "comuna": 19, "nombre": "Comuna 19", "id_barrio": 1913, "barrio": "El Cedro" }, "geometry": { "type": "Point", "coordinates": [ -76.538650315105741, 3.433182277270296 ] } },
{ "type": "Feature", "properties": { "ID": 5890, "X": 1059859.345, "Y": 871425.0582, "Codigo": "<Null>", "Fecha": "2023-10-15T00:00:00", "Año": 2023, "dia_sem": 7, "Tipo_Confi": "Lesiones", "direccion": "Calle 6 Con Carrera 27", "No_Vehicul": 2, "Tipo_de_Ve": "AUTOMOVIL,MOTOCICLETA", "comuna": 19, "nombre": "Comuna 19", "id_barrio": 1912, "barrio": "3 de Julio" }, "geometry": { "type": "Point", "coordinates": [ -76.5388298128088, 3.43331312390963 ] } },
{ "type": "Feature", "properties": { "ID": 5915, "X": 1059681.972, "Y": 871421.4274, "Codigo": "AI007358", "Fecha": "2024-05-23T00:00:00", "Año": 2024, "dia_sem": 5, "Tipo_Confi": "Lesiones", "direccion": "CALLE 5 b , CARRERA 27", "No_Vehicul": 2, "Tipo_de_Ve": "AUTOMOVIL,MOTOCICLETA", "comuna": 19, "nombre": "Comuna 19", "id_barrio": 1912, "barrio": "3 de Julio" }, "geometry": { "type": "Point", "coordinates": [ -76.540425974907663, 3.433281192486956 ] } },
{ "type": "Feature", "properties": { "ID": 6014, "X": 1059861.069, "Y": 871526.8501, "Codigo": "<Null>", "Fecha": "2023-01-25T00:00:00", "Año": 2023, "dia_sem": 3, "Tipo_Confi": "Lesiones", "direccion": "Calle 6 Con Carrera 26", "No_Vehicul": 2, "Tipo_de_Ve": "AUTOMOVIL,MOTOCICLETA", "comuna": 19, "nombre": "Comuna 19", "id_barrio": 1912, "barrio": "3 de Julio" }, "geometry": { "type": "Point", "coordinates": [ -76.538813783038407, 3.434233615884899 ] } },
{ "type": "Feature", "properties": { "ID": 6017, "X": 1059884.6, "Y": 871529.5, "Codigo": "AI017498", "Fecha": "2025-02-04T00:00:00", "Año": 2025, "dia_sem": 2, "Tipo_Confi": "Lesiones", "direccion": "CALLE 6  , CARRERA 26", "No_Vehicul": 2, "Tipo_de_Ve": "MOTOCICLETA,AUTOMOVIL", "comuna": 19, "nombre": "Comuna 19", "id_barrio": 1913, "barrio": "El Cedro" }, "geometry": { "type": "Point", "coordinates": [ -76.538602018721704, 3.434257458969419 ] } },
{ "type": "Feature", "properties": { "ID": 6018, "X": 1059884.6, "Y": 871529.5, "Codigo": "AI024676", "Fecha": "2025-07-09T00:00:00", "Año": 2025, "dia_sem": 3, "Tipo_Confi": "Lesiones", "direccion": "CALLE 6 CARRERA 26", "No_Vehicul": 2, "Tipo_de_Ve": "CAMION,MOTOCICLETA", "comuna": 19, "nombre": "Comuna 19", "id_barrio": 1913, "barrio": "El Cedro" }, "geometry": { "type": "Point", "coordinates": [ -76.538602018721704, 3.434257458969419 ] } },
{ "type": "Feature", "properties": { "ID": 6021, "X": 1059874.028, "Y": 871532.4239000001, "Codigo": "AI017329", "Fecha": "2025-01-31T00:00:00", "Año": 2025, "dia_sem": 5, "Tipo_Confi": "Lesiones", "direccion": "CALLE 6  , CARRERA 26", "No_Vehicul": 2, "Tipo_de_Ve": "MOTOCICLETA,AUTOMOVIL", "comuna": 19, "nombre": "Comuna 19", "id_barrio": 1912, "barrio": "3 de Julio" }, "geometry": { "type": "Point", "coordinates": [ -76.538697139267128, 3.434283953560816 ] } },
{ "type": "Feature", "properties": { "ID": 6120, "X": 1059865.172, "Y": 871623.813, "Codigo": "AI002337", "Fecha": "2024-01-27T00:00:00", "Año": 2024, "dia_sem": 6, "Tipo_Confi": "Lesiones", "direccion": "CALLE 6 CARRERA 25", "No_Vehicul": 1, "Tipo_de_Ve": "BUSETA", "comuna": 19, "nombre": "Comuna 19", "id_barrio": 1912, "barrio": "3 de Julio" }, "geometry": { "type": "Point", "coordinates": [ -76.538776369404388, 3.435110427232519 ] } },
{ "type": "Feature", "properties": { "ID": 6121, "X": 1059865.183, "Y": 871623.8425, "Codigo": "<Null>", "Fecha": "2023-04-14T00:00:00", "Año": 2023, "dia_sem": 5, "Tipo_Confi": "Daños", "direccion": "Calle 6 Con Carrera 25", "No_Vehicul": 2, "Tipo_de_Ve": "CAMIONETA,MOTOCICLETA", "comuna": 19, "nombre": "Comuna 19", "id_barrio": 1912, "barrio": "3 de Julio" }, "geometry": { "type": "Point", "coordinates": [ -76.538776270267888, 3.435110693943983 ] } },
{ "type": "Feature", "properties": { "ID": 6122, "X": 1059888.5, "Y": 871624.4, "Codigo": "AI021534", "Fecha": "2025-05-02T00:00:00", "Año": 2025, "dia_sem": 5, "Tipo_Confi": "Lesiones", "direccion": "CALLE 6 CARRERA 25", "No_Vehicul": 1, "Tipo_de_Ve": "MOTOCICLETA", "comuna": 19, "nombre": "Comuna 19", "id_barrio": 1913, "barrio": "El Cedro" }, "geometry": { "type": "Point", "coordinates": [ -76.538566442113506, 3.435115616577686 ] } },
{ "type": "Feature", "properties": { "ID": 6123, "X": 1059888.5, "Y": 871624.4, "Codigo": null, "Fecha": "2025-05-02T00:00:00", "Año": 2025, "dia_sem": 6, "Tipo_Confi": "Mortal", "direccion": "CL 6. KR 25", "No_Vehicul": 1, "Tipo_de_Ve": "PEATÓN,MOTOCICLETA", "comuna": 19, "nombre": "Comuna 19", "id_barrio": 1913, "barrio": "El Cedro" }, "geometry": { "type": "Point", "coordinates": [ -76.538566442113506, 3.435115616577686 ] } },
{ "type": "Feature", "properties": { "ID": 6201, "X": 1059717.8, "Y": 871672.0, "Codigo": "AI033205", "Fecha": "2025-12-29T00:00:00", "Año": 2025, "dia_sem": 1, "Tipo_Confi": "Daños", "direccion": "CALLE 5 CARRERA 25", "No_Vehicul": 1, "Tipo_de_Ve": "AUTOMOVIL", "comuna": 19, "nombre": "Comuna 19", "id_barrio": 1912, "barrio": "3 de Julio" }, "geometry": { "type": "Point", "coordinates": [ -76.540102298946678, 3.435546930657804 ] } },
{ "type": "Feature", "properties": { "ID": 6271, "X": 1059729.4, "Y": 871709.6, "Codigo": "AI030105", "Fecha": "2025-10-28T00:00:00", "Año": 2025, "dia_sem": 2, "Tipo_Confi": "Lesiones", "direccion": "CALLE 5 CARRERA 24 C", "No_Vehicul": 2, "Tipo_de_Ve": "AUTOMOVIL,MOTOCICLETA", "comuna": 19, "nombre": "Comuna 19", "id_barrio": 1912, "barrio": "3 de Julio" }, "geometry": { "type": "Point", "coordinates": [ -76.539997722410149, 3.435886887287084 ] } },
{ "type": "Feature", "properties": { "ID": 6272, "X": 1059729.4, "Y": 871709.6, "Codigo": "<Null>", "Fecha": "2023-11-03T00:00:00", "Año": 2023, "dia_sem": 6, "Tipo_Confi": "Mortal", "direccion": "CL 5 KR 24C", "No_Vehicul": 1, "Tipo_de_Ve": "PEATÓN,MOTOCICLETA", "comuna": 19, "nombre": "Comuna 19", "id_barrio": 1912, "barrio": "3 de Julio" }, "geometry": { "type": "Point", "coordinates": [ -76.539997722410149, 3.435886887287084 ] } },
{ "type": "Feature", "properties": { "ID": 6358, "X": 1059883.422, "Y": 871727.6932, "Codigo": "AI019534", "Fecha": "2025-03-19T00:00:00", "Año": 2025, "dia_sem": 3, "Tipo_Confi": "Lesiones", "direccion": "CARRERA 24 D OESTE , CALLE 6", "No_Vehicul": 2, "Tipo_de_Ve": "MOTOCICLETA,AUTOMOVIL", "comuna": 19, "nombre": "Comuna 19", "id_barrio": 1913, "barrio": "El Cedro" }, "geometry": { "type": "Point", "coordinates": [ -76.538611614160232, 3.436049719350983 ] } },
{ "type": "Feature", "properties": { "ID": 6488, "X": 1059795.357, "Y": 871799.3039000001, "Codigo": null, "Fecha": "2024-01-28T00:00:00", "Año": 2024, "dia_sem": 7, "Tipo_Confi": "Mortal", "direccion": "Cl 5 entre Kr 24C y Kr 24", "No_Vehicul": 1, "Tipo_de_Ve": "Motocicleta", "comuna": 19, "nombre": "Comuna 19", "id_barrio": 1912, "barrio": "3 de Julio" }, "geometry": { "type": "Point", "coordinates": [ -76.539403732685841, 3.436697741156082 ] } },
{ "type": "Feature", "properties": { "ID": 6489, "X": 1059894.344, "Y": 871803.43, "Codigo": null, "Fecha": "2024-02-27T00:00:00", "Año": 2024, "dia_sem": 2, "Tipo_Confi": "Mortal", "direccion": "Calle 6 24, El Cedro, Comuna 19, Cali, Valle del Cauca", "No_Vehicul": 2, "Tipo_de_Ve": "Motocicleta,Bus", "comuna": 19, "nombre": "Comuna 19", "id_barrio": 1912, "barrio": "3 de Julio" }, "geometry": { "type": "Point", "coordinates": [ -76.538512944713375, 3.436734548950046 ] } },
{ "type": "Feature", "properties": { "ID": 6536, "X": 1059931.86, "Y": 871869.2863, "Codigo": "AI017158", "Fecha": "2025-01-26T00:00:00", "Año": 2025, "dia_sem": 7, "Tipo_Confi": "Lesiones", "direccion": "CALLE 6  , CARRERA 24", "No_Vehicul": 2, "Tipo_de_Ve": "MOTOCICLETA,AUTOMOVIL", "comuna": 19, "nombre": "Comuna 19", "id_barrio": 1913, "barrio": "El Cedro" }, "geometry": { "type": "Point", "coordinates": [ -76.538175010236074, 3.437329893786657 ] } },
{ "type": "Feature", "properties": { "ID": 6563, "X": 1059922.178, "Y": 871880.3356, "Codigo": "<Null>", "Fecha": "2023-11-02T00:00:00", "Año": 2023, "dia_sem": 4, "Tipo_Confi": "Lesiones", "direccion": "Calle 6 Con Carrera 24", "No_Vehicul": 2, "Tipo_de_Ve": "AUTOMOVIL,AUTOMOVIL", "comuna": 19, "nombre": "Comuna 19", "id_barrio": 1913, "barrio": "El Cedro" }, "geometry": { "type": "Point", "coordinates": [ -76.538262080829682, 3.437429861632312 ] } },
{ "type": "Feature", "properties": { "ID": 6564, "X": 1059920.591, "Y": 871881.7114, "Codigo": "<Null>", "Fecha": "2023-06-12T00:00:00", "Año": 2023, "dia_sem": 1, "Tipo_Confi": "Lesiones", "direccion": "Calle 6 Con Carrera 24", "No_Vehicul": 2, "Tipo_de_Ve": null, "comuna": 19, "nombre": "Comuna 19", "id_barrio": 1913, "barrio": "El Cedro" }, "geometry": { "type": "Point", "coordinates": [ -76.538276354993229, 3.437442311042321 ] } }
]
}
