{
"type": "FeatureCollection",
"name": "VIOLENCIA_INTRAFAMILIAR_2023_2025_Roosevelt",
"crs": { "type": "name", "properties": { "name": "urn:ogc:def:crs:OGC:1.3:CRS84" } },
"features": [
{ "type": "Feature", "properties": { "DELITO": "VIOLENCIA INTRAFAMILIAR", "SITIO": "SIN INFORMACION", "COMUNA": 19, "NOM_COMUNA": "COMUNA 19", "BARRIO": 1906, "NOM_BARRIO": "San Fernando Nuevo", "DIRECCION": "76001 Calle 5B3 36 73, San Fernando Nuevo, Comuna 19, Cali, Valle del Cauca, COL,SAN FERNANDO NUEVO", "X": -76.541187, "Y": 3.428016, "FECHA_HECH": "2023-01-22T00:00:00", "HORA_HECHO": "15:00", "ESTRATO": 4 }, "geometry": { "type": "Point", "coordinates": [ -76.541187, 3.428016 ] } },
{ "type": "Feature", "properties": { "DELITO": "VIOLENCIA INTRAFAMILIAR", "SITIO": "SIN INFORMACION", "COMUNA": 19, "NOM_COMUNA": "COMUNA 19", "BARRIO": 1913, "NOM_BARRIO": "El Cedro", "DIRECCION": "76001 Carrera 26, El Cedro, Comuna 19, Cali, Valle del Cauca, COL,EL CEDRO", "X": -76.537785, "Y": 3.43433, "FECHA_HECH": "2023-02-21T00:00:00", "HORA_HECHO": "15:30", "ESTRATO": 4 }, "geometry": { "type": "Point", "coordinates": [ -76.537785, 3.43433 ] } },
{ "type": "Feature", "properties": { "DELITO": "VIOLENCIA INTRAFAMILIAR", "SITIO": "DOMICILIO", "COMUNA": 19, "NOM_COMUNA": "COMUNA 19", "BARRIO": 1913, "NOM_BARRIO": "El Cedro", "DIRECCION": "76001 CARRERA 30 6 60, EL CEDRO, COMUNA 19, CALI, VALLE DEL CAUCA", "X": -76.53818, "Y": 3.43028, "FECHA_HECH": "2023-03-01T00:00:00", "HORA_HECHO": "18:30", "ESTRATO": 4 }, "geometry": { "type": "Point", "coordinates": [ -76.53818, 3.43028 ] } },
{ "type": "Feature", "properties": { "DELITO": "VIOLENCIA INTRAFAMILIAR", "SITIO": "SIN INFORMACION", "COMUNA": 19, "NOM_COMUNA": "COMUNA 19", "BARRIO": 1913, "NOM_BARRIO": "El Cedro", "DIRECCION": "76001 Carrera 28 6 124, El Cedro, Comuna 19, Cali, Valle del Cauca, COL,EL CEDRO", "X": -76.538065, "Y": 3.43244, "FECHA_HECH": "2023-06-22T00:00:00", "HORA_HECHO": "15:30", "ESTRATO": 4 }, "geometry": { "type": "Point", "coordinates": [ -76.538065, 3.43244 ] } },
{ "type": "Feature", "properties": { "DELITO": "VIOLENCIA INTRAFAMILIAR", "SITIO": "DOMICILIO", "COMUNA": 19, "NOM_COMUNA": "COMUNA 19", "BARRIO": 1913, "NOM_BARRIO": "El Cedro", "DIRECCION": "76001 PALAU OSSA LUIS FERNANDO", "X": -76.53783, "Y": 3.42778, "FECHA_HECH": "2023-06-28T00:00:00", "HORA_HECHO": "14:07", "ESTRATO": 4 }, "geometry": { "type": "Point", "coordinates": [ -76.53783, 3.42778 ] } },
{ "type": "Feature", "properties": { "DELITO": "VIOLENCIA INTRAFAMILIAR", "SITIO": "SIN INFORMACION", "COMUNA": 19, "NOM_COMUNA": "COMUNA 19", "BARRIO": 1912, "NOM_BARRIO": "3 de Julio", "DIRECCION": "76001 Carrera 27 5C 46, 3 de Julio, Comuna 19, Cali, Valle del Cauca, COL,3 DE JULIO", "X": -76.53918, "Y": 3.43325, "FECHA_HECH": "2023-07-17T00:00:00", "HORA_HECHO": "08:30", "ESTRATO": 4 }, "geometry": { "type": "Point", "coordinates": [ -76.53918, 3.43325 ] } },
{ "type": "Feature", "properties": { "DELITO": "VIOLENCIA INTRAFAMILIAR", "SITIO": "SIN INFORMACION", "COMUNA": 19, "NOM_COMUNA": "COMUNA 19", "BARRIO": 1913, "NOM_BARRIO": "El Cedro", "DIRECCION": "76001 Calle 7 31 54, El Cedro, Comuna 19, Cali, Valle del Cauca, COL,EL CEDRO", "X": -76.53849, "Y": 3.4286, "FECHA_HECH": "2023-09-25T00:00:00", "HORA_HECHO": "08:23", "ESTRATO": 4 }, "geometry": { "type": "Point", "coordinates": [ -76.53849, 3.4286 ] } },
{ "type": "Feature", "properties": { "DELITO": "VIOLENCIA INTRAFAMILIAR", "SITIO": "DOMICILIO", "COMUNA": 19, "NOM_COMUNA": "COMUNA 19", "BARRIO": 1905, "NOM_BARRIO": "Eucaristico", "DIRECCION": "76001 CARRERA 34 6 60, BARRIO EUCARÍSTICO, COMUNA 19, CALI, VALLE DEL CAUCA", "X": -76.538791, "Y": 3.427673, "FECHA_HECH": "2023-11-04T00:00:00", "HORA_HECHO": "06:30", "ESTRATO": 4 }, "geometry": { "type": "Point", "coordinates": [ -76.538791, 3.427673 ] } },
{ "type": "Feature", "properties": { "DELITO": "VIOLENCIA INTRAFAMILIAR", "SITIO": "SIN INFORMACION", "COMUNA": 19, "NOM_COMUNA": "COMUNA 19", "BARRIO": 1906, "NOM_BARRIO": "San Fernando Nuevo", "DIRECCION": "76001 Calle 5B4 36B 50, San Fernando Nuevo, Comuna 19, Cali, Valle del Cauca, COL,SAN FERNANDO NUEVO", "X": -76.541449, "Y": 3.426816, "FECHA_HECH": "2023-12-25T00:00:00", "HORA_HECHO": "12:00", "ESTRATO": 4 }, "geometry": { "type": "Point", "coordinates": [ -76.541449, 3.426816 ] } },
{ "type": "Feature", "properties": { "DELITO": "VIOLENCIA INTRAFAMILIAR", "SITIO": "SIN INFORMACION", "COMUNA": 19, "NOM_COMUNA": "COMUNA 19", "BARRIO": 1912, "NOM_BARRIO": "3 de Julio", "DIRECCION": "76001 Carrera 27 5C 46, 3 de Julio, Comuna 19, Cali, Valle del Cauca, COL,3 DE JULIO", "X": -76.53918, "Y": 3.43325, "FECHA_HECH": "2024-01-11T00:00:00", "HORA_HECHO": "17:30", "ESTRATO": 4 }, "geometry": { "type": "Point", "coordinates": [ -76.53918, 3.43325 ] } },
{ "type": "Feature", "properties": { "DELITO": "VIOLENCIA INTRAFAMILIAR", "SITIO": "SIN INFORMACION", "COMUNA": 19, "NOM_COMUNA": "COMUNA 19", "BARRIO": 1913, "NOM_BARRIO": "El Cedro", "DIRECCION": "76001 Carrera 24 7-99, El Cedro, Cali, Valle del Cauca, COL,EL CEDRO", "X": -76.537245, "Y": 3.436404, "FECHA_HECH": "2024-01-30T00:00:00", "HORA_HECHO": "15:00", "ESTRATO": 4 }, "geometry": { "type": "Point", "coordinates": [ -76.537245, 3.436404 ] } },
{ "type": "Feature", "properties": { "DELITO": "VIOLENCIA INTRAFAMILIAR", "SITIO": "SIN INFORMACION", "COMUNA": 19, "NOM_COMUNA": "COMUNA 19", "BARRIO": 1912, "NOM_BARRIO": "3 de Julio", "DIRECCION": "76001 Carrera 27, 3 de Julio, Cali, Valle del Cauca, COL,3 DE JULIO", "X": -76.540195, "Y": 3.433321, "FECHA_HECH": "2024-03-03T00:00:00", "HORA_HECHO": "20:03", "ESTRATO": 4 }, "geometry": { "type": "Point", "coordinates": [ -76.540195, 3.433321 ] } },
{ "type": "Feature", "properties": { "DELITO": "VIOLENCIA INTRAFAMILIAR", "SITIO": "SIN INFORMACION", "COMUNA": 19, "NOM_COMUNA": "COMUNA 19", "BARRIO": 1912, "NOM_BARRIO": "3 de Julio", "DIRECCION": "76001 Carrera 27 5C 46, 3 de Julio, Comuna 19, Cali, Valle del Cauca, COL,3 DE JULIO", "X": -76.53918, "Y": 3.43325, "FECHA_HECH": "2024-03-09T00:00:00", "HORA_HECHO": "09:09", "ESTRATO": 4 }, "geometry": { "type": "Point", "coordinates": [ -76.53918, 3.43325 ] } },
{ "type": "Feature", "properties": { "DELITO": "VIOLENCIA INTRAFAMILIAR", "SITIO": "DOMICILIO", "COMUNA": 19, "NOM_COMUNA": "COMUNA 19", "BARRIO": 1913, "NOM_BARRIO": "El Cedro", "DIRECCION": "76001 CARRERA 28 6 62, EL CEDRO, CALI, VALLE DEL CAUCA", "X": -76.538218, "Y": 3.432299, "FECHA_HECH": "2024-03-22T00:00:00", "HORA_HECHO": "11:37", "ESTRATO": 4 }, "geometry": { "type": "Point", "coordinates": [ -76.538218, 3.432299 ] } },
{ "type": "Feature", "properties": { "DELITO": "VIOLENCIA INTRAFAMILIAR", "SITIO": "DOMICILIO", "COMUNA": 19, "NOM_COMUNA": "COMUNA 19", "BARRIO": 1912, "NOM_BARRIO": "3 de Julio", "DIRECCION": "76001 CARRERA 26 42-53, 3 DE JULIO, CALI, VALLE DEL CAUCA", "X": -76.538876, "Y": 3.434308, "FECHA_HECH": "2024-04-15T00:00:00", "HORA_HECHO": "11:00", "ESTRATO": 4 }, "geometry": { "type": "Point", "coordinates": [ -76.538876, 3.434308 ] } },
{ "type": "Feature", "properties": { "DELITO": "VIOLENCIA INTRAFAMILIAR", "SITIO": "DOMICILIO", "COMUNA": 19, "NOM_COMUNA": "COMUNA 19", "BARRIO": 1905, "NOM_BARRIO": "Eucaristico", "DIRECCION": "76001 CARRERA 34 6-46, SAN FERNANDO NUEVO, CALI, VALLE DEL CAUCA", "X": -76.539099, "Y": 3.428181, "FECHA_HECH": "2024-08-01T00:00:00", "HORA_HECHO": "21:30", "ESTRATO": 4 }, "geometry": { "type": "Point", "coordinates": [ -76.539099, 3.428181 ] } },
{ "type": "Feature", "properties": { "DELITO": "VIOLENCIA INTRAFAMILIAR", "SITIO": "SIN INFORMACION", "COMUNA": 19, "NOM_COMUNA": "COMUNA 19", "BARRIO": 1905, "NOM_BARRIO": "Eucaristico", "DIRECCION": "76001 Carrera 34 6 60, Santiago De Cali, Cali, Valle Del Cauca, COL,BARRIO EUCARÍSTICO", "X": -76.538755, "Y": 3.427505, "FECHA_HECH": "2024-08-13T00:00:00", "HORA_HECHO": "08:43", "ESTRATO": 4 }, "geometry": { "type": "Point", "coordinates": [ -76.538755, 3.427505 ] } },
{ "type": "Feature", "properties": { "DELITO": "VIOLENCIA INTRAFAMILIAR", "SITIO": "VIA PUBLICA", "COMUNA": 19, "NOM_COMUNA": "COMUNA 19", "BARRIO": 1905, "NOM_BARRIO": "Eucaristico", "DIRECCION": "76001 CALLE 9 CON CARRERA 36, BARRIO EUCARISTICO, CALI, VALLE DEL CAUCA", "X": -76.537896, "Y": 3.425535, "FECHA_HECH": "2024-09-01T00:00:00", "HORA_HECHO": "09:25", "ESTRATO": 4 }, "geometry": { "type": "Point", "coordinates": [ -76.537896, 3.425535 ] } },
{ "type": "Feature", "properties": { "DELITO": "VIOLENCIA INTRAFAMILIAR", "SITIO": "SIN INFORMACION", "COMUNA": 19, "NOM_COMUNA": "COMUNA 19", "BARRIO": 1913, "NOM_BARRIO": "El Cedro", "DIRECCION": "76001 Carrera 24A 6 50, El Cedro, Cali, Valle del Cauca, COL,EL CEDRO", "X": -76.538118, "Y": 3.436027, "FECHA_HECH": "2025-02-07T00:00:00", "HORA_HECHO": "13:17", "ESTRATO": 4 }, "geometry": { "type": "Point", "coordinates": [ -76.538118, 3.436027 ] } },
{ "type": "Feature", "properties": { "DELITO": "VIOLENCIA INTRAFAMILIAR", "SITIO": "SIN INFORMACION", "COMUNA": 19, "NOM_COMUNA": "COMUNA 19", "BARRIO": 1913, "NOM_BARRIO": "El Cedro", "DIRECCION": "76001 Carrera 32 8 20, El Cedro, Cali, Valle del Cauca, COL,EL CEDRO", "X": -76.537521, "Y": 3.42796, "FECHA_HECH": "2025-05-27T00:00:00", "HORA_HECHO": "03:00", "ESTRATO": 4 }, "geometry": { "type": "Point", "coordinates": [ -76.537521, 3.42796 ] } },
{ "type": "Feature", "properties": { "DELITO": "VIOLENCIA INTRAFAMILIAR", "SITIO": "DOMICILIO", "COMUNA": 19, "NOM_COMUNA": "COMUNA 19", "BARRIO": 1906, "NOM_BARRIO": "San Fernando Nuevo", "DIRECCION": "76001 CARRERA 36B 5B3 148", "X": -76.541054, "Y": 3.427043, "FECHA_HECH": "2025-06-27T00:00:00", "HORA_HECHO": "23:00", "ESTRATO": 4 }, "geometry": { "type": "Point", "coordinates": [ -76.541054, 3.427043 ] } },
{ "type": "Feature", "properties": { "DELITO": "VIOLENCIA INTRAFAMILIAR", "SITIO": "SIN INFORMACION", "COMUNA": 19, "NOM_COMUNA": "COMUNA 19", "BARRIO": 1913, "NOM_BARRIO": "El Cedro", "DIRECCION": "76001 Calle 7 27 9, El Cedro, Cali, Valle del Cauca, COL,EL CEDRO", "X": -76.537557, "Y": 3.432543, "FECHA_HECH": "2025-10-27T00:00:00", "HORA_HECHO": "21:28", "ESTRATO": 4 }, "geometry": { "type": "Point", "coordinates": [ -76.537557, 3.432543 ] } },
{ "type": "Feature", "properties": { "DELITO": "VIOLENCIA INTRAFAMILIAR", "SITIO": "DOMICILIO", "COMUNA": 19, "NOM_COMUNA": "COMUNA 19", "BARRIO": 1913, "NOM_BARRIO": "El Cedro", "DIRECCION": "76001 CARRERA 28 6 6", "X": -76.538804, "Y": 3.432495, "FECHA_HECH": "2025-11-21T00:00:00", "HORA_HECHO": "21:45", "ESTRATO": 4 }, "geometry": { "type": "Point", "coordinates": [ -76.538804, 3.432495 ] } },
{ "type": "Feature", "properties": { "DELITO": "VIOLENCIA INTRAFAMILIAR", "SITIO": "SIN INFORMACION", "COMUNA": 19, "NOM_COMUNA": "COMUNA 19", "BARRIO": 1913, "NOM_BARRIO": "El Cedro", "DIRECCION": "76001 Carrera 28 6, 3 de Julio, Cali, Valle del Cauca, COL,EL CEDRO", "X": -76.538806, "Y": 3.432527, "FECHA_HECH": "2025-11-22T00:00:00", "HORA_HECHO": "20:00", "ESTRATO": 4 }, "geometry": { "type": "Point", "coordinates": [ -76.538806, 3.432527 ] } }
]
}
